{"type": "FeatureCollection", "features": [ {"type": "Feature", "properties": {"norad_id": 39574, "name": "GPM-CORE", "group": "resource", "lat": -47.63028033109854, "lon": 57.22663146164708, "alt_km": 432.14102441615614, "timestamp": "2025-12-14T14:39:29.033397+00:00", "meta": {"OBJECT_NAME": "GPM-CORE", "OBJECT_ID": "2014-009C", "EPOCH": "2025-12-13T23:39:33.413760", "MEAN_MOTION": 15.44491005, "ECCENTRICITY": 0.00097716, "INCLINATION": 64.9735, "RA_OF_ASC_NODE": 208.508, "ARG_OF_PERICENTER": 245.6502, "MEAN_ANOMALY": 114.3619, "EPHEMERIS_TYPE": 0, "CLASSIFICATION_TYPE": "U", "NORAD_CAT_ID": 39574, "ELEMENT_SET_NO": 999, "REV_AT_EPOCH": 66920, "BSTAR": 0.00019963331, "MEAN_MOTION_DOT": 9.074e-05, "MEAN_MOTION_DDOT": 0}, "tle": {"line1": "1 39574U 14009C   25347.98580340  .00009074  00000+0  19963-3 0  9990", "line2": "2 39574  64.9735 208.5080 0009771 245.6502 114.3619 15.44491005669206"}}, "geometry": {"type": "Point", "coordinates": [57.22663146164708, -47.63028033109854]}}, {"type": "Feature", "properties": {"norad_id": 39634, "name": "SENTINEL-1A", "group": "resource", "lat": -46.2537838197711, "lon": 165.1810362727921, "alt_km": 703.2435177545522, "timestamp": "2025-12-14T14:39:29.033407+00:00", "meta": {"OBJECT_NAME": "SENTINEL-1A", "OBJECT_ID": "2014-016A", "EPOCH": "2025-12-14T00:27:22.491648", "MEAN_MOTION": 14.59197931, "ECCENTRICITY": 0.00012296, "INCLINATION": 98.1807, "RA_OF_ASC_NODE": 353.2418, "ARG_OF_PERICENTER": 84.8832, "MEAN_ANOMALY": 275.2508, "EPHEMERIS_TYPE": 0, "CLASSIFICATION_TYPE": "U", "NORAD_CAT_ID": 39634, "ELEMENT_SET_NO": 999, "REV_AT_EPOCH": 62301, "BSTAR": -0.00045384247, "MEAN_MOTION_DOT": -2.184e-05, "MEAN_MOTION_DDOT": 0}, "tle": {"line1": "1 39634U 14016A   25348.01901032 -.00002184  00000+0 -45384-3 0  9998", "line2": "2 39634  98.1807 353.2418 0001229  84.8832 275.2508 14.59197931623013"}}, "geometry": {"type": "Point", "coordinates": [165.1810362727921, -46.2537838197711]}}, {"type": "Feature", "properties": {"norad_id": 39731, "name": "KAZEOSAT 1", "group": "resource", "lat": 80.77074839345958, "lon": -4.09366871125963, "alt_km": 743.4641677229129, "timestamp": "2025-12-14T14:39:29.033417+00:00", "meta": {"OBJECT_NAME": "KAZEOSAT 1", "OBJECT_ID": "2014-024A", "EPOCH": "2025-12-13T23:16:24.048192", "MEAN_MOTION": 14.42063848, "ECCENTRICITY": 0.00011172, "INCLINATION": 98.3429, "RA_OF_ASC_NODE": 59.8491, "ARG_OF_PERICENTER": 96.0726, "MEAN_ANOMALY": 264.0591, "EPHEMERIS_TYPE": 0, "CLASSIFICATION_TYPE": "U", "NORAD_CAT_ID": 39731, "ELEMENT_SET_NO": 999, "REV_AT_EPOCH": 61186, "BSTAR": 0.00013754841, "MEAN_MOTION_DOT": 4.09e-06, "MEAN_MOTION_DDOT": 0}, "tle": {"line1": "1 39731U 14024A   25347.96972278  .00000409  00000+0  13755-3 0  9991", "line2": "2 39731  98.3429  59.8491 0001117  96.0726 264.0591 14.42063848611865"}}, "geometry": {"type": "Point", "coordinates": [-4.09366871125963, 80.77074839345958]}}, {"type": "Feature", "properties": {"norad_id": 39766, "name": "ALOS-2", "group": "resource", "lat": -41.30430994617275, "lon": -103.59798255767183, "alt_km": 638.0735334915289, "timestamp": "2025-12-14T14:39:29.033427+00:00", "meta": {"OBJECT_NAME": "ALOS-2", "OBJECT_ID": "2014-029A", "EPOCH": "2025-12-14T08:47:22.493184", "MEAN_MOTION": 14.79469978, "ECCENTRICITY": 0.0001379, "INCLINATION": 97.9225, "RA_OF_ASC_NODE": 83.1892, "ARG_OF_PERICENTER": 102.2886, "MEAN_ANOMALY": 257.848, "EPHEMERIS_TYPE": 0, "CLASSIFICATION_TYPE": "U", "NORAD_CAT_ID": 39766, "ELEMENT_SET_NO": 999, "REV_AT_EPOCH": 62425, "BSTAR": 0.00031508, "MEAN_MOTION_DOT": 2.302e-05, "MEAN_MOTION_DDOT": 0}, "tle": {"line1": "1 39766U 14029A   25348.36623256  .00002302  00000+0  31508-3 0  9998", "line2": "2 39766  97.9225  83.1892 0001379 102.2886 257.8480 14.79469978624252"}}, "geometry": {"type": "Point", "coordinates": [-103.59798255767183, -41.30430994617275]}}, {"type": "Feature", "properties": {"norad_id": 40010, "name": "KAZEOSAT 2", "group": "resource", "lat": 9.701298608379593, "lon": 14.128139507876618, "alt_km": 610.0584907556149, "timestamp": "2025-12-14T14:39:29.033437+00:00", "meta": {"OBJECT_NAME": "KAZEOSAT 2", "OBJECT_ID": "2014-033A", "EPOCH": "2025-12-13T23:20:29.408640", "MEAN_MOTION": 14.85170609, "ECCENTRICITY": 0.00077316, "INCLINATION": 97.5509, "RA_OF_ASC_NODE": 192.2237, "ARG_OF_PERICENTER": 202.3323, "MEAN_ANOMALY": 157.7558, "EPHEMERIS_TYPE": 0, "CLASSIFICATION_TYPE": "U", "NORAD_CAT_ID": 40010, "ELEMENT_SET_NO": 999, "REV_AT_EPOCH": 62146, "BSTAR": 0.00012008991, "MEAN_MOTION_DOT": 9.79e-06, "MEAN_MOTION_DDOT": 0}, "tle": {"line1": "1 40010U 14033A   25347.97256260  .00000979  00000+0  12009-3 0  9993", "line2": "2 40010  97.5509 192.2237 0007731 202.3323 157.7558 14.85170609621469"}}, "geometry": {"type": "Point", "coordinates": [14.128139507876618, 9.701298608379593]}}, {"type": "Feature", "properties": {"norad_id": 40011, "name": "HODOYOSHI-4", "group": "resource", "lat": -81.58333761987956, "lon": -119.0403226448136, "alt_km": 610.1914227005273, "timestamp": "2025-12-14T14:39:29.033448+00:00", "meta": {"OBJECT_NAME": "HODOYOSHI-4", "OBJECT_ID": "2014-033B", "EPOCH": "2025-12-14T00:30:58.317120", "MEAN_MOTION": 14.87490404, "ECCENTRICITY": 0.00232892, "INCLINATION": 97.5418, "RA_OF_ASC_NODE": 176.8422, "ARG_OF_PERICENTER": 195.9885, "MEAN_ANOMALY": 164.06, "EPHEMERIS_TYPE": 0, "CLASSIFICATION_TYPE": "U", "NORAD_CAT_ID": 40011, "ELEMENT_SET_NO": 999, "REV_AT_EPOCH": 62127, "BSTAR": 0.00032588977, "MEAN_MOTION_DOT": 2.916e-05, "MEAN_MOTION_DDOT": 0}, "tle": {"line1": "1 40011U 14033B   25348.02150830  .00002916  00000+0  32589-3 0  9995", "line2": "2 40011  97.5418 176.8422 0023289 195.9885 164.0600 14.87490404621277"}}, "geometry": {"type": "Point", "coordinates": [-119.0403226448136, -81.58333761987956]}}, {"type": "Feature", "properties": {"norad_id": 40013, "name": "DEIMOS-2", "group": "resource", "lat": 70.78383964204033, "lon": 66.89293403580203, "alt_km": 581.2063631555375, "timestamp": "2025-12-14T14:39:29.033474+00:00", "meta": {"OBJECT_NAME": "DEIMOS-2", "OBJECT_ID": "2014-033D", "EPOCH": "2025-12-13T23:42:03.385152", "MEAN_MOTION": 14.92981344, "ECCENTRICITY": 8.528e-05, "INCLINATION": 97.6063, "RA_OF_ASC_NODE": 223.7467, "ARG_OF_PERICENTER": 108.5548, "MEAN_ANOMALY": 251.5765, "EPHEMERIS_TYPE": 0, "CLASSIFICATION_TYPE": "U", "NORAD_CAT_ID": 40013, "ELEMENT_SET_NO": 999, "REV_AT_EPOCH": 61008, "BSTAR": 0.00035736687, "MEAN_MOTION_DOT": 3.659e-05, "MEAN_MOTION_DDOT": 0}, "tle": {"line1": "1 40013U 14033D   25347.98753918  .00003659  00000+0  35737-3 0  9990", "line2": "2 40013  97.6063 223.7467 0000852 108.5548 251.5765 14.92981344610089"}}, "geometry": {"type": "Point", "coordinates": [66.89293403580203, 70.78383964204033]}}, {"type": "Feature", "properties": {"norad_id": 40015, "name": "HODOYOSHI-3", "group": "resource", "lat": -0.6788164871259751, "lon": -25.726754583462174, "alt_km": 606.4461096412851, "timestamp": "2025-12-14T14:39:29.033484+00:00", "meta": {"OBJECT_NAME": "HODOYOSHI-3", "OBJECT_ID": "2014-033F", "EPOCH": "2025-12-13T23:17:17.671488", "MEAN_MOTION": 14.84812483, "ECCENTRICITY": 0.00319395, "INCLINATION": 97.6197, "RA_OF_ASC_NODE": 153.7518, "ARG_OF_PERICENTER": 243.7861, "MEAN_ANOMALY": 116.007, "EPHEMERIS_TYPE": 0, "CLASSIFICATION_TYPE": "U", "NORAD_CAT_ID": 40015, "ELEMENT_SET_NO": 999, "REV_AT_EPOCH": 62013, "BSTAR": 0.00024890133, "MEAN_MOTION_DOT": 2.079e-05, "MEAN_MOTION_DDOT": 0}, "tle": {"line1": "1 40015U 14033F   25347.97034342  .00002079  00000+0  24890-3 0  9997", "line2": "2 40015  97.6197 153.7518 0031939 243.7861 116.0070 14.84812483620137"}}, "geometry": {"type": "Point", "coordinates": [-25.726754583462174, -0.6788164871259751]}}, {"type": "Feature", "properties": {"norad_id": 40053, "name": "SPOT 7", "group": "resource", "lat": 75.72836696686343, "lon": -95.35659700676558, "alt_km": 682.5391280865615, "timestamp": "2025-12-14T14:39:29.033494+00:00", "meta": {"OBJECT_NAME": "SPOT 7", "OBJECT_ID": "2014-034A", "EPOCH": "2025-12-13T23:23:53.216736", "MEAN_MOTION": 14.60737277, "ECCENTRICITY": 0.00015791, "INCLINATION": 98.0904, "RA_OF_ASC_NODE": 50.0216, "ARG_OF_PERICENTER": 86.8308, "MEAN_ANOMALY": 273.3073, "EPHEMERIS_TYPE": 0, "CLASSIFICATION_TYPE": "U", "NORAD_CAT_ID": 40053, "ELEMENT_SET_NO": 999, "REV_AT_EPOCH": 61009, "BSTAR": 0.00023544086, "MEAN_MOTION_DOT": 1.102e-05, "MEAN_MOTION_DDOT": 0}, "tle": {"line1": "1 40053U 14034A   25347.97492149  .00001102  00000+0  23544-3 0  9994", "line2": "2 40053  98.0904  50.0216 0001579  86.8308 273.3073 14.60737277610098"}}, "geometry": {"type": "Point", "coordinates": [-95.35659700676558, 75.72836696686343]}}, {"type": "Feature", "properties": {"norad_id": 40072, "name": "SKYSAT-B", "group": "resource", "lat": -35.42210094793585, "lon": 106.41137855838807, "alt_km": 611.1701411654476, "timestamp": "2025-12-14T14:39:29.033504+00:00", "meta": {"OBJECT_NAME": "SKYSAT-B", "OBJECT_ID": "2014-037D", "EPOCH": "2025-12-13T19:55:50.871360", "MEAN_MOTION": 14.87333305, "ECCENTRICITY": 0.00062291, "INCLINATION": 98.3607, "RA_OF_ASC_NODE": 291.5941, "ARG_OF_PERICENTER": 146.8423, "MEAN_ANOMALY": 213.3183, "EPHEMERIS_TYPE": 0, "CLASSIFICATION_TYPE": "U", "NORAD_CAT_ID": 40072, "ELEMENT_SET_NO": 999, "REV_AT_EPOCH": 61840, "BSTAR": 0.00025305466, "MEAN_MOTION_DOT": 2.225e-05, "MEAN_MOTION_DDOT": 0}, "tle": {"line1": "1 40072U 14037D   25347.83044990  .00002225  00000+0  25305-3 0  9994", "line2": "2 40072  98.3607 291.5941 0006229 146.8423 213.3183 14.87333305618403"}}, "geometry": {"type": "Point", "coordinates": [106.41137855838807, -35.42210094793585]}}]}